start=new Date('%Y-%m-41T00:00:00.000Z').valueOf();
sats=[{"RCS_SIZE":"LARGE","COUNTRY_CODE":"US","LAUNCH_DATE":"2020-06-04","REV_AT_EPOCH":"6836","MEAN_ELEMENT_THEORY":"SGP4","NORAD_CAT_ID":"45679","INCLINATION":"53.0555","MEAN_ANOMALY":"242.0916","SITE":"AFETR","REF_FRAME":"TEME","PERIAPSIS":"546.437","EPOCH":"2021-08-20T15:40:35.125248","MEAN_MOTION_DDOT":"0.0000000000000","EPHEMERIS_TYPE":"0","TLE_LINE2":"2 45679  53.0555 317.7964 0001148 118.0189 242.0916 15.06394098 68367","MEAN_MOTION_DOT":"-0.00001028","MEAN_MOTION":"15.06394098","OBJECT_NAME":"STARLINK-1394","PERIOD":"95.593","ELEMENT_SET_NO":"999","CLASSIFICATION_TYPE":"U","RA_OF_ASC_NODE":"317.7964","CENTER_NAME":"EARTH","OBJECT_TYPE":"PAYLOAD","ECCENTRICITY":"0.00011480","BSTAR":"-0.00005013400000","TLE_LINE1":"1 45679U 20035Y   21232.65318432 -.00001028  00000-0 -50134-4 0  9993","TIME_SYSTEM":"UTC","SEMIMAJOR_AXIS":"6925.367","ARG_OF_PERICENTER":"118.0189","APOAPSIS":"548.027","FILE":"3100512","DECAY_DATE":null,"OBJECT_ID":"2020-035Y","GP_ID":"183153856"},{"ARG_OF_PERICENTER":"111.8476","APOAPSIS":"547.763","FILE":"3100512","OBJECT_ID":"2020-035Z","DECAY_DATE":null,"GP_ID":"183154607","CLASSIFICATION_TYPE":"U","CENTER_NAME":"EARTH","RA_OF_ASC_NODE":"317.7676","OBJECT_TYPE":"PAYLOAD","ECCENTRICITY":"0.00007940","BSTAR":"0.00005509600000","TLE_LINE1":"1 45680U 20035Z   21232.66056151  .00000540  00000-0  55096-4 0  9991","TIME_SYSTEM":"UTC","SEMIMAJOR_AXIS":"6925.348","EPOCH":"2021-08-20T15:51:12.514464","TLE_LINE2":"2 45680  53.0552 317.7676 0000794 111.8476 248.2597 15.06400022 68359","EPHEMERIS_TYPE":"0","MEAN_MOTION_DDOT":"0.0000000000000","MEAN_MOTION_DOT":"0.00000540","MEAN_MOTION":"15.06400022","OBJECT_NAME":"STARLINK-1395","ELEMENT_SET_NO":"999","PERIOD":"95.592","REV_AT_EPOCH":"6835","LAUNCH_DATE":"2020-06-04","MEAN_ELEMENT_THEORY":"SGP4","RCS_SIZE":"LARGE","COUNTRY_CODE":"US","NORAD_CAT_ID":"45680","MEAN_ANOMALY":"248.2597","INCLINATION":"53.0552","SITE":"AFETR","REF_FRAME":"TEME","PERIAPSIS":"546.664"},{"FILE":"3100512","OBJECT_ID":"2020-035AA","DECAY_DATE":null,"GP_ID":"183152855","ARG_OF_PERICENTER":"123.4136","APOAPSIS":"547.911","BSTAR":"0.00015392000000","TLE_LINE1":"1 45681U 20035AA  21232.72323685  .00002012  00000-0  15392-3 0  9998","TIME_SYSTEM":"UTC","SEMIMAJOR_AXIS":"6925.366","CLASSIFICATION_TYPE":"U","CENTER_NAME":"EARTH","RA_OF_ASC_NODE":"317.4880","OBJECT_TYPE":"PAYLOAD","ECCENTRICITY":"0.00009820","MEAN_MOTION_DOT":"0.00002012","MEAN_MOTION":"15.06394387","OBJECT_NAME":"STARLINK-1396","ELEMENT_SET_NO":"999","PERIOD":"95.592","EPOCH":"2021-08-20T17:21:27.663840","EPHEMERIS_TYPE":"0","TLE_LINE2":"2 45681  53.0541 317.4880 0000982 123.4136 236.6947 15.06394387 68371","MEAN_MOTION_DDOT":"0.0000000000000","MEAN_ANOMALY":"236.6947","INCLINATION":"53.0541","SITE":"AFETR","REF_FRAME":"TEME","PERIAPSIS":"546.551","MEAN_ELEMENT_THEORY":"SGP4","LAUNCH_DATE":"2020-06-04","REV_AT_EPOCH":"6837","RCS_SIZE":"LARGE","COUNTRY_CODE":"US","NORAD_CAT_ID":"45681"},{"EPOCH":"2021-08-20T17:32:02.191488","MEAN_MOTION_DDOT":"0.0000000000000","TLE_LINE2":"2 45682  53.0560 317.4513 0000928 121.3945 238.7134 15.06400810 68360","EPHEMERIS_TYPE":"0","MEAN_MOTION_DOT":"0.00000725","MEAN_MOTION":"15.06400810","OBJECT_NAME":"STARLINK-1397","PERIOD":"95.592","ELEMENT_SET_NO":"999","RCS_SIZE":"LARGE","COUNTRY_CODE":"US","REV_AT_EPOCH":"6836","LAUNCH_DATE":"2020-06-04","MEAN_ELEMENT_THEORY":"SGP4","NORAD_CAT_ID":"45682","INCLINATION":"53.0560","MEAN_ANOMALY":"238.7134","REF_FRAME":"TEME","SITE":"AFETR","PERIAPSIS":"546.568","ARG_OF_PERICENTER":"121.3945","APOAPSIS":"547.854","FILE":"3100512","DECAY_DATE":null,"OBJECT_ID":"2020-035AB","GP_ID":"183153105","CLASSIFICATION_TYPE":"U","RA_OF_ASC_NODE":"317.4513","CENTER_NAME":"EARTH","OBJECT_TYPE":"PAYLOAD","ECCENTRICITY":"0.00009280","BSTAR":"0.00006752600000","TLE_LINE1":"1 45682U 20035AB  21232.73058092  .00000725  00000-0  67526-4 0  9993","TIME_SYSTEM":"UTC","SEMIMAJOR_AXIS":"6925.346"},{"PERIOD":"95.593","ELEMENT_SET_NO":"999","OBJECT_NAME":"STARLINK-1399","MEAN_MOTION":"15.06394195","MEAN_MOTION_DOT":"-0.00001024","MEAN_MOTION_DDOT":"0.0000000000000","TLE_LINE2":"2 45683  53.0556 317.5310 0000781 125.1236 234.9827 15.06394195 68370","EPHEMERIS_TYPE":"0","EPOCH":"2021-08-20T17:05:30.226560","PERIAPSIS":"546.690","REF_FRAME":"TEME","SITE":"AFETR","INCLINATION":"53.0556","MEAN_ANOMALY":"234.9827","NORAD_CAT_ID":"45683","RCS_SIZE":"LARGE","COUNTRY_CODE":"US","REV_AT_EPOCH":"6837","LAUNCH_DATE":"2020-06-04","MEAN_ELEMENT_THEORY":"SGP4","GP_ID":"183154357","DECAY_DATE":null,"OBJECT_ID":"2020-035AC","FILE":"3100512","APOAPSIS":"547.772","ARG_OF_PERICENTER":"125.1236","SEMIMAJOR_AXIS":"6925.366","TLE_LINE1":"1 45683U 20035AC  21232.71215540 -.00001024  00000-0 -49890-4 0  9994","TIME_SYSTEM":"UTC","BSTAR":"-0.00004989000000","ECCENTRICITY":"0.00007810","OBJECT_TYPE":"PAYLOAD","RA_OF_ASC_NODE":"317.5310","CENTER_NAME":"EARTH","CLASSIFICATION_TYPE":"U"},{"OBJECT_TYPE":"PAYLOAD","ECCENTRICITY":"0.00008160","CLASSIFICATION_TYPE":"U","RA_OF_ASC_NODE":"317.3360","CENTER_NAME":"EARTH","SEMIMAJOR_AXIS":"6925.365","BSTAR":"0.00006696300000","TIME_SYSTEM":"UTC","TLE_LINE1":"1 45684U 20035AD  21232.75638928  .00000716  00000-0  66963-4 0  9993","ARG_OF_PERICENTER":"112.1329","APOAPSIS":"547.795","GP_ID":"183154107","FILE":"3100512","DECAY_DATE":null,"OBJECT_ID":"2020-035AD","NORAD_CAT_ID":"45684","RCS_SIZE":"LARGE","COUNTRY_CODE":"US","MEAN_ELEMENT_THEORY":"SGP4","LAUNCH_DATE":"2020-06-04","REV_AT_EPOCH":"6838","REF_FRAME":"TEME","SITE":"AFETR","PERIAPSIS":"546.665","INCLINATION":"53.0547","MEAN_ANOMALY":"247.9747","MEAN_MOTION_DDOT":"0.0000000000000","TLE_LINE2":"2 45684  53.0547 317.3360 0000816 112.1329 247.9747 15.06394596 68383","EPHEMERIS_TYPE":"0","EPOCH":"2021-08-20T18:09:12.033792","OBJECT_NAME":"STARLINK-1401","MEAN_MOTION":"15.06394596","PERIOD":"95.592","ELEMENT_SET_NO":"999","MEAN_MOTION_DOT":"0.00000716"},{"INCLINATION":"53.0555","MEAN_ANOMALY":"232.9456","REF_FRAME":"TEME","SITE":"AFETR","PERIAPSIS":"546.582","RCS_SIZE":"LARGE","COUNTRY_CODE":"US","MEAN_ELEMENT_THEORY":"SGP4","LAUNCH_DATE":"2020-06-04","REV_AT_EPOCH":"6838","NORAD_CAT_ID":"45685","MEAN_MOTION_DOT":"-0.00000826","MEAN_MOTION":"15.06389935","OBJECT_NAME":"STARLINK-1402","PERIOD":"95.593","ELEMENT_SET_NO":"999","EPOCH":"2021-08-20T18:03:54.048960","MEAN_MOTION_DDOT":"0.0000000000000","EPHEMERIS_TYPE":"0","TLE_LINE2":"2 45685  53.0555 317.3538 0000956 127.1620 232.9456 15.06389935 68387","BSTAR":"-0.00003657500000","TIME_SYSTEM":"UTC","TLE_LINE1":"1 45685U 20035AE  21232.75270890 -.00000826  00000-0 -36575-4 0  9994","SEMIMAJOR_AXIS":"6925.379","CLASSIFICATION_TYPE":"U","RA_OF_ASC_NODE":"317.3538","CENTER_NAME":"EARTH","OBJECT_TYPE":"PAYLOAD","ECCENTRICITY":"0.00009560","FILE":"3100512","DECAY_DATE":null,"OBJECT_ID":"2020-035AE","GP_ID":"183153356","ARG_OF_PERICENTER":"127.1620","APOAPSIS":"547.906"},{"TLE_LINE2":"2 45686  53.0545 317.3888 0000798 128.9294 231.1766 15.06397758 68382","EPHEMERIS_TYPE":"0","MEAN_MOTION_DDOT":"0.0000000000000","EPOCH":"2021-08-20T17:53:16.269216","MEAN_MOTION":"15.06397758","OBJECT_NAME":"STARLINK-1404","ELEMENT_SET_NO":"999","PERIOD":"95.592","MEAN_MOTION_DOT":"0.00000754","NORAD_CAT_ID":"45686","LAUNCH_DATE":"2020-06-04","MEAN_ELEMENT_THEORY":"SGP4","REV_AT_EPOCH":"6838","COUNTRY_CODE":"US","RCS_SIZE":"LARGE","SITE":"AFETR","REF_FRAME":"TEME","PERIAPSIS":"546.668","MEAN_ANOMALY":"231.1766","INCLINATION":"53.0545","ARG_OF_PERICENTER":"128.9294","APOAPSIS":"547.773","GP_ID":"183153606","FILE":"3100512","OBJECT_ID":"2020-035AF","DECAY_DATE":null,"OBJECT_TYPE":"PAYLOAD","ECCENTRICITY":"0.00007980","CLASSIFICATION_TYPE":"U","CENTER_NAME":"EARTH","RA_OF_ASC_NODE":"317.3888","SEMIMAJOR_AXIS":"6925.355","BSTAR":"0.00006947900000","TIME_SYSTEM":"UTC","TLE_LINE1":"1 45686U 20035AF  21232.74532719  .00000754  00000-0  69479-4 0  9992"},{"ECCENTRICITY":"0.00007740","OBJECT_TYPE":"PAYLOAD","CENTER_NAME":"EARTH","RA_OF_ASC_NODE":"307.5257","CLASSIFICATION_TYPE":"U","SEMIMAJOR_AXIS":"6927.866","TIME_SYSTEM":"UTC","TLE_LINE1":"1 45687U 20035AG  21232.71204575 -.00000889  00000-0 -41883-4 0  9996","BSTAR":"-0.00004188300000","APOAPSIS":"550.267","ARG_OF_PERICENTER":"154.5610","GP_ID":"183153857","OBJECT_ID":"2020-035AG","DECAY_DATE":null,"FILE":"3100512","NORAD_CAT_ID":"45687","LAUNCH_DATE":"2020-06-04","REV_AT_EPOCH":"6849","MEAN_ELEMENT_THEORY":"SGP4","COUNTRY_CODE":"US","RCS_SIZE":"LARGE","PERIAPSIS":"549.195","SITE":"AFETR","REF_FRAME":"TEME","MEAN_ANOMALY":"205.5416","INCLINATION":"53.0019","TLE_LINE2":"2 45687  53.0019 307.5257 0000774 154.5610 205.5416 15.05578932 68494","EPHEMERIS_TYPE":"0","MEAN_MOTION_DDOT":"0.0000000000000","EPOCH":"2021-08-20T17:05:20.752800","ELEMENT_SET_NO":"999","PERIOD":"95.644","OBJECT_NAME":"STARLINK-1406","MEAN_MOTION":"15.05578932","MEAN_MOTION_DOT":"-0.00000889"},{"APOAPSIS":"547.998","ARG_OF_PERICENTER":"108.1826","GP_ID":"183160527","OBJECT_ID":"2020-035AH","DECAY_DATE":null,"FILE":"3100632","ECCENTRICITY":"0.00011360","OBJECT_TYPE":"PAYLOAD","CENTER_NAME":"EARTH","RA_OF_ASC_NODE":"316.5243","CLASSIFICATION_TYPE":"U","SEMIMAJOR_AXIS":"6925.346","TIME_SYSTEM":"UTC","TLE_LINE1":"1 45688U 20035AH  21232.93699278  .00001414  00000-0  11377-3 0  9996","BSTAR":"0.00011377000000","EPHEMERIS_TYPE":"0","TLE_LINE2":"2 45688  53.0544 316.5243 0001136 108.1826 251.9287 15.06400871 67992","MEAN_MOTION_DDOT":"0.0000000000000","EPOCH":"2021-08-20T22:29:16.176192","ELEMENT_SET_NO":"999","PERIOD":"95.592","MEAN_MOTION":"15.06400871","OBJECT_NAME":"STARLINK-1408","MEAN_MOTION_DOT":"0.00001414","NORAD_CAT_ID":"45688","MEAN_ELEMENT_THEORY":"SGP4","LAUNCH_DATE":"2020-06-04","REV_AT_EPOCH":"6799","RCS_SIZE":"LARGE","COUNTRY_CODE":"US","PERIAPSIS":"546.424","REF_FRAME":"TEME","SITE":"AFETR","MEAN_ANOMALY":"251.9287","INCLINATION":"53.0544"}];
